CCSDS_OMM_VERS = 2.0
CREATION_DATE  = 
ORIGINATOR     = 

OBJECT_NAME    = STARLINK-37026
OBJECT_ID      = 2026-042G
CENTER_NAME    = EARTH
REF_FRAME      = TEME
TIME_SYSTEM    = UTC
MEAN_ELEMENT_THEORY = SGP/SGP4

EPOCH          = 2026-03-19T06:00:02.000160
MEAN_MOTION    = 15.75276595
ECCENTRICITY   = .00011791
INCLINATION    = 53.1593
RA_OF_ASC_NODE = 146.8597
ARG_OF_PERICENTER = 83.3057
MEAN_ANOMALY   = 322.8032

EPHEMERIS_TYPE = 0
CLASSIFICATION_TYPE = U
NORAD_CAT_ID   = 68075
ELEMENT_SET_NO = 999
REV_AT_EPOCH   = 358
BSTAR          = -.51670717E-3
MEAN_MOTION_DOT = -.79236E-3
MEAN_MOTION_DDOT = 0

CCSDS_OMM_VERS = 2.0
CREATION_DATE  = 
ORIGINATOR     = 

OBJECT_NAME    = STARLINK-37023
OBJECT_ID      = 2026-042H
CENTER_NAME    = EARTH
REF_FRAME      = TEME
TIME_SYSTEM    = UTC
MEAN_ELEMENT_THEORY = SGP/SGP4

EPOCH          = 2026-03-19T06:00:02.000160
MEAN_MOTION    = 15.78486889
ECCENTRICITY   = .00008964
INCLINATION    = 53.1591
RA_OF_ASC_NODE = 146.8091
ARG_OF_PERICENTER = 96.5329
MEAN_ANOMALY   = 334.5746

EPHEMERIS_TYPE = 0
CLASSIFICATION_TYPE = U
NORAD_CAT_ID   = 68076
ELEMENT_SET_NO = 999
REV_AT_EPOCH   = 358
BSTAR          = -.12544321E-1
MEAN_MOTION_DOT = -.1931037E-1
MEAN_MOTION_DDOT = 0

CCSDS_OMM_VERS = 2.0
CREATION_DATE  = 
ORIGINATOR     = 

OBJECT_NAME    = STARLINK-37036
OBJECT_ID      = 2026-042J
CENTER_NAME    = EARTH
REF_FRAME      = TEME
TIME_SYSTEM    = UTC
MEAN_ELEMENT_THEORY = SGP/SGP4

EPOCH          = 2026-03-19T06:00:02.000160
MEAN_MOTION    = 15.77198622
ECCENTRICITY   = .00010072
INCLINATION    = 53.1592
RA_OF_ASC_NODE = 146.8066
ARG_OF_PERICENTER = 69.0924
MEAN_ANOMALY   = 2.9707

EPHEMERIS_TYPE = 0
CLASSIFICATION_TYPE = U
NORAD_CAT_ID   = 68077
ELEMENT_SET_NO = 999
REV_AT_EPOCH   = 358
BSTAR          = -.12786377E-1
MEAN_MOTION_DOT = -.1866431E-1
MEAN_MOTION_DDOT = 0

CCSDS_OMM_VERS = 2.0
CREATION_DATE  = 
ORIGINATOR     = 

OBJECT_NAME    = STARLINK-36973
OBJECT_ID      = 2026-042K
CENTER_NAME    = EARTH
REF_FRAME      = TEME
TIME_SYSTEM    = UTC
MEAN_ELEMENT_THEORY = SGP/SGP4

EPOCH          = 2026-03-19T06:00:02.000160
MEAN_MOTION    = 15.80846614
ECCENTRICITY   = .000114
INCLINATION    = 53.1590
RA_OF_ASC_NODE = 146.7784
ARG_OF_PERICENTER = 98.4269
MEAN_ANOMALY   = 347.9875

EPHEMERIS_TYPE = 0
CLASSIFICATION_TYPE = U
NORAD_CAT_ID   = 68078
ELEMENT_SET_NO = 999
REV_AT_EPOCH   = 358
BSTAR          = .30900108E-3
MEAN_MOTION_DOT = .60643E-3
MEAN_MOTION_DDOT = 0

CCSDS_OMM_VERS = 2.0
CREATION_DATE  = 
ORIGINATOR     = 

OBJECT_NAME    = STARLINK-37063
OBJECT_ID      = 2026-042L
CENTER_NAME    = EARTH
REF_FRAME      = TEME
TIME_SYSTEM    = UTC
MEAN_ELEMENT_THEORY = SGP/SGP4

EPOCH          = 2026-03-19T06:00:02.000160
MEAN_MOTION    = 15.80854849
ECCENTRICITY   = .00012972
INCLINATION    = 53.1633
RA_OF_ASC_NODE = 146.7871
ARG_OF_PERICENTER = 97.7605
MEAN_ANOMALY   = 344.3870

EPHEMERIS_TYPE = 0
CLASSIFICATION_TYPE = U
NORAD_CAT_ID   = 68079
ELEMENT_SET_NO = 999
REV_AT_EPOCH   = 358
BSTAR          = .19197088E-3
MEAN_MOTION_DOT = .37322E-3
MEAN_MOTION_DDOT = 0

CCSDS_OMM_VERS = 2.0
CREATION_DATE  = 
ORIGINATOR     = 

OBJECT_NAME    = STARLINK-37051
OBJECT_ID      = 2026-042M
CENTER_NAME    = EARTH
REF_FRAME      = TEME
TIME_SYSTEM    = UTC
MEAN_ELEMENT_THEORY = SGP/SGP4

EPOCH          = 2026-03-19T06:00:02.000160
MEAN_MOTION    = 15.80852504
ECCENTRICITY   = .00012609
INCLINATION    = 53.1588
RA_OF_ASC_NODE = 146.7599
ARG_OF_PERICENTER = 113.4086
MEAN_ANOMALY   = 341.5512

EPHEMERIS_TYPE = 0
CLASSIFICATION_TYPE = U
NORAD_CAT_ID   = 68080
ELEMENT_SET_NO = 999
REV_AT_EPOCH   = 358
BSTAR          = .31313872E-3
MEAN_MOTION_DOT = .61487E-3
MEAN_MOTION_DDOT = 0

CCSDS_OMM_VERS = 2.0
CREATION_DATE  = 
ORIGINATOR     = 

OBJECT_NAME    = STARLINK-37066
OBJECT_ID      = 2026-042N
CENTER_NAME    = EARTH
REF_FRAME      = TEME
TIME_SYSTEM    = UTC
MEAN_ELEMENT_THEORY = SGP/SGP4

EPOCH          = 2026-03-19T06:00:02.000160
MEAN_MOTION    = 15.80857605
ECCENTRICITY   = .00013269
INCLINATION    = 53.1590
RA_OF_ASC_NODE = 146.7694
ARG_OF_PERICENTER = 70.6422
MEAN_ANOMALY   = 20.0462

EPHEMERIS_TYPE = 0
CLASSIFICATION_TYPE = U
NORAD_CAT_ID   = 68081
ELEMENT_SET_NO = 999
REV_AT_EPOCH   = 358
BSTAR          = .25122449E-3
MEAN_MOTION_DOT = .49132E-3
MEAN_MOTION_DDOT = 0

CCSDS_OMM_VERS = 2.0
CREATION_DATE  = 
ORIGINATOR     = 

OBJECT_NAME    = STARLINK-37054
OBJECT_ID      = 2026-042P
CENTER_NAME    = EARTH
REF_FRAME      = TEME
TIME_SYSTEM    = UTC
MEAN_ELEMENT_THEORY = SGP/SGP4

EPOCH          = 2026-03-19T06:00:02.000160
MEAN_MOTION    = 15.80871328
ECCENTRICITY   = .00012546
INCLINATION    = 53.1588
RA_OF_ASC_NODE = 146.7514
ARG_OF_PERICENTER = 86.7041
MEAN_ANOMALY   = 12.5388

EPHEMERIS_TYPE = 0
CLASSIFICATION_TYPE = U
NORAD_CAT_ID   = 68082
ELEMENT_SET_NO = 999
REV_AT_EPOCH   = 358
BSTAR          = .55780795E-4
MEAN_MOTION_DOT = .10322E-3
MEAN_MOTION_DDOT = 0

CCSDS_OMM_VERS = 2.0
CREATION_DATE  = 
ORIGINATOR     = 

OBJECT_NAME    = STARLINK-37065
OBJECT_ID      = 2026-042Q
CENTER_NAME    = EARTH
REF_FRAME      = TEME
TIME_SYSTEM    = UTC
MEAN_ELEMENT_THEORY = SGP/SGP4

EPOCH          = 2026-03-19T06:00:02.000160
MEAN_MOTION    = 15.77633350
ECCENTRICITY   = .00013168
INCLINATION    = 53.1591
RA_OF_ASC_NODE = 146.7519
ARG_OF_PERICENTER = 88.7439
MEAN_ANOMALY   = 10.1661

EPHEMERIS_TYPE = 0
CLASSIFICATION_TYPE = U
NORAD_CAT_ID   = 68083
ELEMENT_SET_NO = 999
REV_AT_EPOCH   = 358
BSTAR          = -.12299538E-1
MEAN_MOTION_DOT = -.1835727E-1
MEAN_MOTION_DDOT = 0

CCSDS_OMM_VERS = 2.0
CREATION_DATE  = 
ORIGINATOR     = 

OBJECT_NAME    = STARLINK-37037
OBJECT_ID      = 2026-042R
CENTER_NAME    = EARTH
REF_FRAME      = TEME
TIME_SYSTEM    = UTC
MEAN_ELEMENT_THEORY = SGP/SGP4

EPOCH          = 2026-03-19T06:00:02.000160
MEAN_MOTION    = 15.80839187
ECCENTRICITY   = .00010925
INCLINATION    = 53.1587
RA_OF_ASC_NODE = 146.7336
ARG_OF_PERICENTER = 97.4661
MEAN_ANOMALY   = 10.3188

EPHEMERIS_TYPE = 0
CLASSIFICATION_TYPE = U
NORAD_CAT_ID   = 68084
ELEMENT_SET_NO = 999
REV_AT_EPOCH   = 358
BSTAR          = .34963449E-3
MEAN_MOTION_DOT = .6875E-3
MEAN_MOTION_DDOT = 0

CCSDS_OMM_VERS = 2.0
CREATION_DATE  = 
ORIGINATOR     = 

OBJECT_NAME    = STARLINK-37068
OBJECT_ID      = 2026-042S
CENTER_NAME    = EARTH
REF_FRAME      = TEME
TIME_SYSTEM    = UTC
MEAN_ELEMENT_THEORY = SGP/SGP4

EPOCH          = 2026-03-19T06:00:02.000160
MEAN_MOTION    = 15.80840300
ECCENTRICITY   = .00011167
INCLINATION    = 53.1586
RA_OF_ASC_NODE = 146.7247
ARG_OF_PERICENTER = 111.1992
MEAN_ANOMALY   = 0.8481

EPHEMERIS_TYPE = 0
CLASSIFICATION_TYPE = U
NORAD_CAT_ID   = 68085
ELEMENT_SET_NO = 999
REV_AT_EPOCH   = 358
BSTAR          = .4184715E-3
MEAN_MOTION_DOT = .82561E-3
MEAN_MOTION_DDOT = 0

CCSDS_OMM_VERS = 2.0
CREATION_DATE  = 
ORIGINATOR     = 

OBJECT_NAME    = STARLINK-37067
OBJECT_ID      = 2026-042T
CENTER_NAME    = EARTH
REF_FRAME      = TEME
TIME_SYSTEM    = UTC
MEAN_ELEMENT_THEORY = SGP/SGP4

EPOCH          = 2026-03-19T06:00:02.000160
MEAN_MOTION    = 15.80853903
ECCENTRICITY   = .00014276
INCLINATION    = 53.1586
RA_OF_ASC_NODE = 146.7161
ARG_OF_PERICENTER = 41.3560
MEAN_ANOMALY   = 74.9597

EPHEMERIS_TYPE = 0
CLASSIFICATION_TYPE = U
NORAD_CAT_ID   = 68086
ELEMENT_SET_NO = 999
REV_AT_EPOCH   = 358
BSTAR          = .28135274E-3
MEAN_MOTION_DOT = .55138E-3
MEAN_MOTION_DDOT = 0

CCSDS_OMM_VERS = 2.0
CREATION_DATE  = 
ORIGINATOR     = 

OBJECT_NAME    = STARLINK-37062
OBJECT_ID      = 2026-042U
CENTER_NAME    = EARTH
REF_FRAME      = TEME
TIME_SYSTEM    = UTC
MEAN_ELEMENT_THEORY = SGP/SGP4

EPOCH          = 2026-03-19T06:00:02.000160
MEAN_MOTION    = 15.80874861
ECCENTRICITY   = .00013958
INCLINATION    = 53.1588
RA_OF_ASC_NODE = 146.7069
ARG_OF_PERICENTER = 75.2496
MEAN_ANOMALY   = 45.2998

EPHEMERIS_TYPE = 0
CLASSIFICATION_TYPE = U
NORAD_CAT_ID   = 68087
ELEMENT_SET_NO = 999
REV_AT_EPOCH   = 358
BSTAR          = .40950051E-3
MEAN_MOTION_DOT = .80891E-3
MEAN_MOTION_DDOT = 0

CCSDS_OMM_VERS = 2.0
CREATION_DATE  = 
ORIGINATOR     = 

OBJECT_NAME    = STARLINK-37059
OBJECT_ID      = 2026-042V
CENTER_NAME    = EARTH
REF_FRAME      = TEME
TIME_SYSTEM    = UTC
MEAN_ELEMENT_THEORY = SGP/SGP4

EPOCH          = 2026-03-19T06:00:02.000160
MEAN_MOTION    = 15.80877890
ECCENTRICITY   = .00012153
INCLINATION    = 53.1587
RA_OF_ASC_NODE = 146.6983
ARG_OF_PERICENTER = 83.5792
MEAN_ANOMALY   = 41.2889

EPHEMERIS_TYPE = 0
CLASSIFICATION_TYPE = U
NORAD_CAT_ID   = 68088
ELEMENT_SET_NO = 999
REV_AT_EPOCH   = 358
BSTAR          = .55070559E-4
MEAN_MOTION_DOT = .10185E-3
MEAN_MOTION_DDOT = 0

CCSDS_OMM_VERS = 2.0
CREATION_DATE  = 
ORIGINATOR     = 

OBJECT_NAME    = STARLINK-37004
OBJECT_ID      = 2026-042W
CENTER_NAME    = EARTH
REF_FRAME      = TEME
TIME_SYSTEM    = UTC
MEAN_ELEMENT_THEORY = SGP/SGP4

EPOCH          = 2026-03-19T06:00:02.000160
MEAN_MOTION    = 15.80844304
ECCENTRICITY   = .00012313
INCLINATION    = 53.1589
RA_OF_ASC_NODE = 146.6894
ARG_OF_PERICENTER = 86.7228
MEAN_ANOMALY   = 42.4143

EPHEMERIS_TYPE = 0
CLASSIFICATION_TYPE = U
NORAD_CAT_ID   = 68089
ELEMENT_SET_NO = 999
REV_AT_EPOCH   = 358
BSTAR          = .3322451E-3
MEAN_MOTION_DOT = .65286E-3
MEAN_MOTION_DDOT = 0

